STARLINK-36799          
1 67958U 26037AC  26064.25003472 -.01515828  67459-3 -35313-2 0  9997
2 67958  43.0000 225.7978 0001629 275.3988 234.3054 15.96212849  2486
STARLINK-36834          
1 67959U 26037AD  26064.25003472 -.01519961  67972-3 -34930-2 0  9994
2 67959  43.0002 225.7841 0001374 272.9119 242.1029 15.96462796  2481
STARLINK-36841          
1 67960U 26037AE  26064.25003472 -.01521942  68049-3 -35212-2 0  9998
2 67960  43.0000 225.7911 0001572 268.9230 243.2937 15.96339483  2484
STARLINK-36912          
1 67961U 26038A   26064.25003472 -.01503486  70852-3 -27592-2 0  9990
2 67961  97.2767  74.1735 0001180  71.5802  51.4237 16.01401041  2483
STARLINK-36881          
1 67962U 26038B   26064.25003472 -.01475689  68487-3 -26980-2 0  9995
2 67962  97.2764  74.1741 0001031  80.8223  43.9157 16.01463096  2488
STARLINK-36357          
1 67963U 26038C   26064.25003472 -.01496089  70459-3 -26966-2 0  9999
2 67963  97.2763  74.1763 0001113  79.9159  49.3510 16.01712876  2486
STARLINK-36349          
1 67964U 26038D   26064.25003472 -.01509131  71515-3 -27375-2 0  9992
2 67964  97.2762  74.1750 0001141  87.3923  39.5994 16.01604241  2488
STARLINK-36806          
1 67965U 26038E   26064.25003472 -.01486535  69732-3 -26588-2 0  9998
2 67965  97.2758  74.1773 0001201  71.1612  60.7284 16.01845107  2488
STARLINK-36820          
1 67966U 26038F   26064.25003472 -.01484442  69641-3 -26376-2 0  9998
2 67966  97.2758  74.1783 0001133  85.4347  48.6605 16.01958683  2483
STARLINK-36819          
1 67967U 26038G   26064.25003472 -.01462093  67786-3 -25822-2 0  9990
2 67967  97.2757  74.1791 0001289  75.4780  61.0087 16.02059631  2483
STARLINK-36812          
1 67968U 26038H   26064.25003472 -.01481429  69554-3 -25991-2 0  9997
2 67968  97.2754  74.1798 0001283  70.5866  67.9384 16.02176650  2489
STARLINK-36709          
1 67969U 26038J   26064.25003472 -.01473535  69067-3 -25481-2 0  9990
2 67969  97.2754  74.1821 0001093  79.5053  63.8638 16.02424841  2488
STARLINK-36319          
1 67970U 26038K   26064.25003472 -.01483757  69863-3 -25837-2 0  9998
2 67970  97.2753  74.1808 0001241  71.0597  69.8632 16.02306182  2453
STARLINK-36710          
1 67971U 26038L   26064.25003472 -.01473257  69172-3 -25240-2 0  9994
2 67971  97.2750  74.1834 0001111  72.9873  73.3233 16.02584508  2483
STARLINK-36894          
1 67972U 26038M   26064.25003472 -.01466371  68671-3 -24941-2 0  9994
2 67972  97.2748  74.1843 0001227  66.8947  81.8576 16.02706831  2482
STARLINK-36900          
1 67973U 26038N   26064.25003472 -.01424046  65207-3 -23899-2 0  9991
2 67973  97.2746  74.1864 0001054  78.1103  75.5268 16.02930108  2486
